{"type": "FeatureCollection", "features": [ {"type": "Feature", "properties": {"norad_id": 66588, "name": "STARLINK-36076", "group": "last-30-days", "lat": 14.723563060267152, "lon": -147.47702142617717, "alt_km": 425.5188335845569, "timestamp": "2025-12-12T03:50:51.177182+00:00", "meta": {"OBJECT_NAME": "STARLINK-36076", "OBJECT_ID": "2025-270A", "EPOCH": "2025-12-11T14:00:01.999872", "MEAN_MOTION": 15.48905022, "ECCENTRICITY": 0.00013554, "INCLINATION": 42.9994, "RA_OF_ASC_NODE": 199.5035, "ARG_OF_PERICENTER": 253.8594, "MEAN_ANOMALY": 149.6516, "EPHEMERIS_TYPE": 0, "CLASSIFICATION_TYPE": "U", "NORAD_CAT_ID": 66588, "ELEMENT_SET_NO": 999, "REV_AT_EPOCH": 421, "BSTAR": -0.039705004, "MEAN_MOTION_DOT": -0.0196421, "MEAN_MOTION_DDOT": 0}, "tle": {"line1": "1 66588U 25270A   25345.58335648 -.01964210  00000+0 -39705-1 0  9999", "line2": "2 66588  42.9994 199.5035 0001355 253.8594 149.6516 15.48905022  4219"}}, "geometry": {"type": "Point", "coordinates": [-147.47702142617717, 14.723563060267152]}}, {"type": "Feature", "properties": {"norad_id": 66589, "name": "STARLINK-35447", "group": "last-30-days", "lat": 21.653704976811728, "lon": -138.6681318047566, "alt_km": 412.62234668404744, "timestamp": "2025-12-12T03:50:51.177192+00:00", "meta": {"OBJECT_NAME": "STARLINK-35447", "OBJECT_ID": "2025-270B", "EPOCH": "2025-12-11T14:00:01.999872", "MEAN_MOTION": 15.50583223, "ECCENTRICITY": 0.00019877, "INCLINATION": 42.9998, "RA_OF_ASC_NODE": 199.49, "ARG_OF_PERICENTER": 264.3064, "MEAN_ANOMALY": 144.1054, "EPHEMERIS_TYPE": 0, "CLASSIFICATION_TYPE": "U", "NORAD_CAT_ID": 66589, "ELEMENT_SET_NO": 999, "REV_AT_EPOCH": 432, "BSTAR": -0.0012678648, "MEAN_MOTION_DOT": -0.00074037, "MEAN_MOTION_DDOT": 0}, "tle": {"line1": "1 66589U 25270B   25345.58335648 -.00074037  00000+0 -12679-2 0  9990", "line2": "2 66589  42.9998 199.4900 0001987 264.3064 144.1054 15.50583223  4321"}}, "geometry": {"type": "Point", "coordinates": [-138.6681318047566, 21.653704976811728]}}, {"type": "Feature", "properties": {"norad_id": 66590, "name": "STARLINK-35429", "group": "last-30-days", "lat": 20.404006004785053, "lon": -140.35307531162715, "alt_km": 412.93637720235984, "timestamp": "2025-12-12T03:50:51.177204+00:00", "meta": {"OBJECT_NAME": "STARLINK-35429", "OBJECT_ID": "2025-270C", "EPOCH": "2025-12-11T14:00:01.999872", "MEAN_MOTION": 15.50416094, "ECCENTRICITY": 0.00021691, "INCLINATION": 42.9997, "RA_OF_ASC_NODE": 199.4948, "ARG_OF_PERICENTER": 247.5979, "MEAN_ANOMALY": 158.9068, "EPHEMERIS_TYPE": 0, "CLASSIFICATION_TYPE": "U", "NORAD_CAT_ID": 66590, "ELEMENT_SET_NO": 999, "REV_AT_EPOCH": 432, "BSTAR": 0.0022511213, "MEAN_MOTION_DOT": 0.0013322, "MEAN_MOTION_DDOT": 0}, "tle": {"line1": "1 66590U 25270C   25345.58335648  .00133220  00000+0  22511-2 0  9996", "line2": "2 66590  42.9997 199.4948 0002169 247.5979 158.9068 15.50416094  4324"}}, "geometry": {"type": "Point", "coordinates": [-140.35307531162715, 20.404006004785053]}}, {"type": "Feature", "properties": {"norad_id": 66591, "name": "STARLINK-36058", "group": "last-30-days", "lat": 22.830636276986475, "lon": -137.03188976735416, "alt_km": 412.46329472622983, "timestamp": "2025-12-12T03:50:51.177214+00:00", "meta": {"OBJECT_NAME": "STARLINK-36058", "OBJECT_ID": "2025-270D", "EPOCH": "2025-12-11T14:00:01.999872", "MEAN_MOTION": 15.50560218, "ECCENTRICITY": 0.00020033, "INCLINATION": 42.9997, "RA_OF_ASC_NODE": 199.4853, "ARG_OF_PERICENTER": 256.3751, "MEAN_ANOMALY": 153.9297, "EPHEMERIS_TYPE": 0, "CLASSIFICATION_TYPE": "U", "NORAD_CAT_ID": 66591, "ELEMENT_SET_NO": 999, "REV_AT_EPOCH": 421, "BSTAR": -0.00017163063, "MEAN_MOTION_DOT": -0.00010391, "MEAN_MOTION_DDOT": 0}, "tle": {"line1": "1 66591U 25270D   25345.58335648 -.00010391  00000+0 -17163-3 0  9990", "line2": "2 66591  42.9997 199.4853 0002003 256.3751 153.9297 15.50560218  4218"}}, "geometry": {"type": "Point", "coordinates": [-137.03188976735416, 22.830636276986475]}}, {"type": "Feature", "properties": {"norad_id": 66592, "name": "STARLINK-36066", "group": "last-30-days", "lat": 23.96678742255628, "lon": -135.40153567383524, "alt_km": 412.7189420524528, "timestamp": "2025-12-12T03:50:51.177224+00:00", "meta": {"OBJECT_NAME": "STARLINK-36066", "OBJECT_ID": "2025-270E", "EPOCH": "2025-12-11T14:00:01.999872", "MEAN_MOTION": 15.5061275, "ECCENTRICITY": 0.00018592, "INCLINATION": 42.9996, "RA_OF_ASC_NODE": 199.4807, "ARG_OF_PERICENTER": 247.4893, "MEAN_ANOMALY": 164.7631, "EPHEMERIS_TYPE": 0, "CLASSIFICATION_TYPE": "U", "NORAD_CAT_ID": 66592, "ELEMENT_SET_NO": 999, "REV_AT_EPOCH": 411, "BSTAR": -0.002624086, "MEAN_MOTION_DOT": -0.00151532, "MEAN_MOTION_DDOT": 0}, "tle": {"line1": "1 66592U 25270E   25345.58335648 -.00151532  00000+0 -26241-2 0  9990", "line2": "2 66592  42.9996 199.4807 0001859 247.4893 164.7631 15.50612750  4113"}}, "geometry": {"type": "Point", "coordinates": [-135.40153567383524, 23.96678742255628]}}, {"type": "Feature", "properties": {"norad_id": 66593, "name": "STARLINK-36031", "group": "last-30-days", "lat": 25.119333213593432, "lon": -133.69108467248446, "alt_km": 412.38362972832965, "timestamp": "2025-12-12T03:50:51.177234+00:00", "meta": {"OBJECT_NAME": "STARLINK-36031", "OBJECT_ID": "2025-270F", "EPOCH": "2025-12-11T14:00:01.999872", "MEAN_MOTION": 15.50599988, "ECCENTRICITY": 0.00017891, "INCLINATION": 42.9998, "RA_OF_ASC_NODE": 199.4764, "ARG_OF_PERICENTER": 248.0287, "MEAN_ANOMALY": 166.133, "EPHEMERIS_TYPE": 0, "CLASSIFICATION_TYPE": "U", "NORAD_CAT_ID": 66593, "ELEMENT_SET_NO": 999, "REV_AT_EPOCH": 421, "BSTAR": -0.0018305781, "MEAN_MOTION_DOT": -0.0010637, "MEAN_MOTION_DDOT": 0}, "tle": {"line1": "1 66593U 25270F   25345.58335648 -.00106370  00000+0 -18306-2 0  9994", "line2": "2 66593  42.9998 199.4764 0001789 248.0287 166.1330 15.50599988  4214"}}, "geometry": {"type": "Point", "coordinates": [-133.69108467248446, 25.119333213593432]}}, {"type": "Feature", "properties": {"norad_id": 66594, "name": "STARLINK-36032", "group": "last-30-days", "lat": 26.244566504155898, "lon": -131.96019879898734, "alt_km": 412.10669831974883, "timestamp": "2025-12-12T03:50:51.177243+00:00", "meta": {"OBJECT_NAME": "STARLINK-36032", "OBJECT_ID": "2025-270G", "EPOCH": "2025-12-11T14:00:01.999872", "MEAN_MOTION": 15.50586572, "ECCENTRICITY": 0.00019967, "INCLINATION": 42.9996, "RA_OF_ASC_NODE": 199.471, "ARG_OF_PERICENTER": 259.9726, "MEAN_ANOMALY": 156.1029, "EPHEMERIS_TYPE": 0, "CLASSIFICATION_TYPE": "U", "NORAD_CAT_ID": 66594, "ELEMENT_SET_NO": 999, "REV_AT_EPOCH": 395, "BSTAR": -0.0013326294, "MEAN_MOTION_DOT": -0.00077774, "MEAN_MOTION_DDOT": 0}, "tle": {"line1": "1 66594U 25270G   25345.58335648 -.00077774  00000+0 -13326-2 0  9997", "line2": "2 66594  42.9996 199.4710 0001996 259.9726 156.1029 15.50586572  3952"}}, "geometry": {"type": "Point", "coordinates": [-131.96019879898734, 26.244566504155898]}}, {"type": "Feature", "properties": {"norad_id": 66595, "name": "STARLINK-35711", "group": "last-30-days", "lat": 27.29189395872035, "lon": -130.2882782968075, "alt_km": 411.3332269841567, "timestamp": "2025-12-12T03:50:51.177253+00:00", "meta": {"OBJECT_NAME": "STARLINK-35711", "OBJECT_ID": "2025-270H", "EPOCH": "2025-12-11T14:00:01.999872", "MEAN_MOTION": 15.50403833, "ECCENTRICITY": 0.00010164, "INCLINATION": 42.9999, "RA_OF_ASC_NODE": 199.4658, "ARG_OF_PERICENTER": 250.876, "MEAN_ANOMALY": 167.1646, "EPHEMERIS_TYPE": 0, "CLASSIFICATION_TYPE": "U", "NORAD_CAT_ID": 66595, "ELEMENT_SET_NO": 999, "REV_AT_EPOCH": 432, "BSTAR": 0.0022324204, "MEAN_MOTION_DOT": 0.00132029, "MEAN_MOTION_DDOT": 0}, "tle": {"line1": "1 66595U 25270H   25345.58335648  .00132029  00000+0  22324-2 0  9999", "line2": "2 66595  42.9999 199.4658 0001016 250.8760 167.1646 15.50403833  4325"}}, "geometry": {"type": "Point", "coordinates": [-130.2882782968075, 27.29189395872035]}}, {"type": "Feature", "properties": {"norad_id": 66596, "name": "STARLINK-35811", "group": "last-30-days", "lat": 26.38321617637829, "lon": -131.74295510007715, "alt_km": 421.1250879908439, "timestamp": "2025-12-12T03:50:51.177265+00:00", "meta": {"OBJECT_NAME": "STARLINK-35811", "OBJECT_ID": "2025-270J", "EPOCH": "2025-12-11T14:00:01.999872", "MEAN_MOTION": 15.502658, "ECCENTRICITY": 0.00019363, "INCLINATION": 43, "RA_OF_ASC_NODE": 199.4615, "ARG_OF_PERICENTER": 263.5154, "MEAN_ANOMALY": 156.3036, "EPHEMERIS_TYPE": 0, "CLASSIFICATION_TYPE": "U", "NORAD_CAT_ID": 66596, "ELEMENT_SET_NO": 999, "REV_AT_EPOCH": 432, "BSTAR": -0.043516856, "MEAN_MOTION_DOT": -0.02225127, "MEAN_MOTION_DDOT": 0}, "tle": {"line1": "1 66596U 25270J   25345.58335648 -.02225127  00000+0 -43517-1 0  9992", "line2": "2 66596  43.0000 199.4615 0001936 263.5154 156.3036 15.50265800  4326"}}, "geometry": {"type": "Point", "coordinates": [-131.74295510007715, 26.38321617637829]}}, {"type": "Feature", "properties": {"norad_id": 66597, "name": "STARLINK-35820", "group": "last-30-days", "lat": 29.47033449030186, "lon": -126.5873837916459, "alt_km": 411.6976829808982, "timestamp": "2025-12-12T03:50:51.177275+00:00", "meta": {"OBJECT_NAME": "STARLINK-35820", "OBJECT_ID": "2025-270K", "EPOCH": "2025-12-11T14:00:01.999872", "MEAN_MOTION": 15.50598902, "ECCENTRICITY": 0.00019624, "INCLINATION": 42.9997, "RA_OF_ASC_NODE": 199.4566, "ARG_OF_PERICENTER": 260.1172, "MEAN_ANOMALY": 161.7075, "EPHEMERIS_TYPE": 0, "CLASSIFICATION_TYPE": "U", "NORAD_CAT_ID": 66597, "ELEMENT_SET_NO": 999, "REV_AT_EPOCH": 432, "BSTAR": -0.001725979, "MEAN_MOTION_DOT": -0.00100385, "MEAN_MOTION_DDOT": 0}, "tle": {"line1": "1 66597U 25270K   25345.58335648 -.00100385  00000+0 -17260-2 0  9996", "line2": "2 66597  42.9997 199.4566 0001962 260.1172 161.7075 15.50598902  4322"}}, "geometry": {"type": "Point", "coordinates": [-126.5873837916459, 29.47033449030186]}}]}